{"type": "FeatureCollection", "features": [ {"type": "Feature", "properties": {"norad_id": 66626, "name": "STARLINK-35902", "group": "last-30-days", "lat": 38.72236778271784, "lon": -1.0782124397704815, "alt_km": 341.15609786393543, "timestamp": "2025-12-06T20:37:54.814313+00:00", "meta": {"OBJECT_NAME": "STARLINK-35902", "OBJECT_ID": "2025-271K", "EPOCH": "2025-12-06T14:00:01.999872", "MEAN_MOTION": 15.74242537, "ECCENTRICITY": 0.00010561, "INCLINATION": 53.1578, "RA_OF_ASC_NODE": 217.2478, "ARG_OF_PERICENTER": 101.5459, "MEAN_ANOMALY": 260.1573, "EPHEMERIS_TYPE": 0, "CLASSIFICATION_TYPE": "U", "NORAD_CAT_ID": 66626, "ELEMENT_SET_NO": 999, "REV_AT_EPOCH": 325, "BSTAR": -0.00021287478, "MEAN_MOTION_DOT": -0.0003176, "MEAN_MOTION_DDOT": 0}, "tle": {"line1": "1 66626U 25271K   25340.58335648 -.00031760  00000+0 -21287-3 0  9990", "line2": "2 66626  53.1578 217.2478 0001056 101.5459 260.1573 15.74242537  3259"}}, "geometry": {"type": "Point", "coordinates": [-1.0782124397704815, 38.72236778271784]}}, {"type": "Feature", "properties": {"norad_id": 66627, "name": "STARLINK-35904", "group": "last-30-days", "lat": 37.47425447029648, "lon": 0.7861344902769813, "alt_km": 341.4052412524434, "timestamp": "2025-12-06T20:37:54.814327+00:00", "meta": {"OBJECT_NAME": "STARLINK-35904", "OBJECT_ID": "2025-271L", "EPOCH": "2025-12-06T14:00:01.999872", "MEAN_MOTION": 15.74232189, "ECCENTRICITY": 8.223e-05, "INCLINATION": 53.1577, "RA_OF_ASC_NODE": 217.2437, "ARG_OF_PERICENTER": 115.4404, "MEAN_ANOMALY": 248.1877, "EPHEMERIS_TYPE": 0, "CLASSIFICATION_TYPE": "U", "NORAD_CAT_ID": 66627, "ELEMENT_SET_NO": 999, "REV_AT_EPOCH": 309, "BSTAR": 0.00014590286, "MEAN_MOTION_DOT": 0.00020831, "MEAN_MOTION_DDOT": 0}, "tle": {"line1": "1 66627U 25271L   25340.58335648  .00020831  00000+0  14590-3 0  9995", "line2": "2 66627  53.1577 217.2437 0000822 115.4404 248.1877 15.74232189  3095"}}, "geometry": {"type": "Point", "coordinates": [0.7861344902769813, 37.47425447029648]}}, {"type": "Feature", "properties": {"norad_id": 66628, "name": "STARLINK-35862", "group": "last-30-days", "lat": 36.24087775346968, "lon": 2.5291489128763627, "alt_km": 341.95950460659515, "timestamp": "2025-12-06T20:37:54.814338+00:00", "meta": {"OBJECT_NAME": "STARLINK-35862", "OBJECT_ID": "2025-271M", "EPOCH": "2025-12-06T14:00:01.999872", "MEAN_MOTION": 15.7415062, "ECCENTRICITY": 6.018e-05, "INCLINATION": 53.1576, "RA_OF_ASC_NODE": 217.2397, "ARG_OF_PERICENTER": 100.9794, "MEAN_ANOMALY": 264.5789, "EPHEMERIS_TYPE": 0, "CLASSIFICATION_TYPE": "U", "NORAD_CAT_ID": 66628, "ELEMENT_SET_NO": 999, "REV_AT_EPOCH": 325, "BSTAR": 0.00043106431, "MEAN_MOTION_DOT": 0.00062868, "MEAN_MOTION_DDOT": 0}, "tle": {"line1": "1 66628U 25271M   25340.58335648  .00062868  00000+0  43106-3 0  9997", "line2": "2 66628  53.1576 217.2397 0000601 100.9794 264.5789 15.74150620  3257"}}, "geometry": {"type": "Point", "coordinates": [2.5291489128763627, 36.24087775346968]}}, {"type": "Feature", "properties": {"norad_id": 66629, "name": "STARLINK-35956", "group": "last-30-days", "lat": 34.940882346204276, "lon": 4.273064606707036, "alt_km": 341.8600013148871, "timestamp": "2025-12-06T20:37:54.814348+00:00", "meta": {"OBJECT_NAME": "STARLINK-35956", "OBJECT_ID": "2025-271N", "EPOCH": "2025-12-06T14:00:01.999872", "MEAN_MOTION": 15.74159363, "ECCENTRICITY": 0.00012078, "INCLINATION": 53.1577, "RA_OF_ASC_NODE": 217.2362, "ARG_OF_PERICENTER": 97.1491, "MEAN_ANOMALY": 270.3239, "EPHEMERIS_TYPE": 0, "CLASSIFICATION_TYPE": "U", "NORAD_CAT_ID": 66629, "ELEMENT_SET_NO": 999, "REV_AT_EPOCH": 325, "BSTAR": 0.00031518177, "MEAN_MOTION_DOT": 0.00045721, "MEAN_MOTION_DDOT": 0}, "tle": {"line1": "1 66629U 25271N   25340.58335648  .00045721  00000+0  31518-3 0  9991", "line2": "2 66629  53.1577 217.2362 0001207  97.1491 270.3239 15.74159363  3253"}}, "geometry": {"type": "Point", "coordinates": [4.273064606707036, 34.940882346204276]}}, {"type": "Feature", "properties": {"norad_id": 66630, "name": "STARLINK-35949", "group": "last-30-days", "lat": 33.621646740642525, "lon": 5.954426865266374, "alt_km": 342.3540072671094, "timestamp": "2025-12-06T20:37:54.814358+00:00", "meta": {"OBJECT_NAME": "STARLINK-35949", "OBJECT_ID": "2025-271P", "EPOCH": "2025-12-06T14:00:01.999872", "MEAN_MOTION": 15.7419073, "ECCENTRICITY": 9.397e-05, "INCLINATION": 53.1576, "RA_OF_ASC_NODE": 217.2317, "ARG_OF_PERICENTER": 78.8433, "MEAN_ANOMALY": 290.5255, "EPHEMERIS_TYPE": 0, "CLASSIFICATION_TYPE": "U", "NORAD_CAT_ID": 66630, "ELEMENT_SET_NO": 999, "REV_AT_EPOCH": 325, "BSTAR": 2.1608972e-05, "MEAN_MOTION_DOT": 2.537e-05, "MEAN_MOTION_DDOT": 0}, "tle": {"line1": "1 66630U 25271P   25340.58335648  .00002537  00000+0  21609-4 0  9992", "line2": "2 66630  53.1576 217.2317 0000939  78.8433 290.5255 15.74190730  3252"}}, "geometry": {"type": "Point", "coordinates": [5.954426865266374, 33.621646740642525]}}, {"type": "Feature", "properties": {"norad_id": 66631, "name": "STARLINK-35965", "group": "last-30-days", "lat": 32.28422188382939, "lon": 7.581046614071927, "alt_km": 342.43262577820224, "timestamp": "2025-12-06T20:37:54.814369+00:00", "meta": {"OBJECT_NAME": "STARLINK-35965", "OBJECT_ID": "2025-271Q", "EPOCH": "2025-12-06T14:00:01.999872", "MEAN_MOTION": 15.74133302, "ECCENTRICITY": 0.00010845, "INCLINATION": 53.1579, "RA_OF_ASC_NODE": 217.2279, "ARG_OF_PERICENTER": 92.5114, "MEAN_ANOMALY": 278.8019, "EPHEMERIS_TYPE": 0, "CLASSIFICATION_TYPE": "U", "NORAD_CAT_ID": 66631, "ELEMENT_SET_NO": 999, "REV_AT_EPOCH": 325, "BSTAR": 0.00061528222, "MEAN_MOTION_DOT": 0.00090232, "MEAN_MOTION_DDOT": 0}, "tle": {"line1": "1 66631U 25271Q   25340.58335648  .00090232  00000+0  61528-3 0  9995", "line2": "2 66631  53.1579 217.2279 0001084  92.5114 278.8019 15.74133302  3253"}}, "geometry": {"type": "Point", "coordinates": [7.581046614071927, 32.28422188382939]}}, {"type": "Feature", "properties": {"norad_id": 66632, "name": "STARLINK-35973", "group": "last-30-days", "lat": 30.92154860140158, "lon": 9.164460451590548, "alt_km": 342.86456194232596, "timestamp": "2025-12-06T20:37:54.814381+00:00", "meta": {"OBJECT_NAME": "STARLINK-35973", "OBJECT_ID": "2025-271R", "EPOCH": "2025-12-06T14:00:01.999872", "MEAN_MOTION": 15.74161824, "ECCENTRICITY": 5.707e-05, "INCLINATION": 53.1577, "RA_OF_ASC_NODE": 217.2237, "ARG_OF_PERICENTER": 100.8832, "MEAN_ANOMALY": 272.337, "EPHEMERIS_TYPE": 0, "CLASSIFICATION_TYPE": "U", "NORAD_CAT_ID": 66632, "ELEMENT_SET_NO": 999, "REV_AT_EPOCH": 319, "BSTAR": 0.00028305043, "MEAN_MOTION_DOT": 0.00040977, "MEAN_MOTION_DDOT": 0}, "tle": {"line1": "1 66632U 25271R   25340.58335648  .00040977  00000+0  28305-3 0  9993", "line2": "2 66632  53.1577 217.2237 0000570 100.8832 272.3370 15.74161824  3197"}}, "geometry": {"type": "Point", "coordinates": [9.164460451590548, 30.92154860140158]}}, {"type": "Feature", "properties": {"norad_id": 66633, "name": "STARLINK-35948", "group": "last-30-days", "lat": 29.541862543902702, "lon": 10.700609490190152, "alt_km": 342.7879829891317, "timestamp": "2025-12-06T20:37:54.814391+00:00", "meta": {"OBJECT_NAME": "STARLINK-35948", "OBJECT_ID": "2025-271S", "EPOCH": "2025-12-06T14:00:01.999872", "MEAN_MOTION": 15.74152922, "ECCENTRICITY": 0.00010824, "INCLINATION": 53.1572, "RA_OF_ASC_NODE": 217.2194, "ARG_OF_PERICENTER": 104.9907, "MEAN_ANOMALY": 270.1432, "EPHEMERIS_TYPE": 0, "CLASSIFICATION_TYPE": "U", "NORAD_CAT_ID": 66633, "ELEMENT_SET_NO": 999, "REV_AT_EPOCH": 325, "BSTAR": 0.00044960579, "MEAN_MOTION_DOT": 0.00065628, "MEAN_MOTION_DDOT": 0}, "tle": {"line1": "1 66633U 25271S   25340.58335648  .00065628  00000+0  44961-3 0  9990", "line2": "2 66633  53.1572 217.2194 0001082 104.9907 270.1432 15.74152922  3253"}}, "geometry": {"type": "Point", "coordinates": [10.700609490190152, 29.541862543902702]}}, {"type": "Feature", "properties": {"norad_id": 66634, "name": "STARLINK-35967", "group": "last-30-days", "lat": 28.140017565735068, "lon": 12.200537118998765, "alt_km": 343.0373514886496, "timestamp": "2025-12-06T20:37:54.814401+00:00", "meta": {"OBJECT_NAME": "STARLINK-35967", "OBJECT_ID": "2025-271T", "EPOCH": "2025-12-06T14:00:01.999872", "MEAN_MOTION": 15.74175793, "ECCENTRICITY": 0.00010057, "INCLINATION": 53.1571, "RA_OF_ASC_NODE": 217.2151, "ARG_OF_PERICENTER": 108.0094, "MEAN_ANOMALY": 269.0335, "EPHEMERIS_TYPE": 0, "CLASSIFICATION_TYPE": "U", "NORAD_CAT_ID": 66634, "ELEMENT_SET_NO": 999, "REV_AT_EPOCH": 318, "BSTAR": 0.00021508404, "MEAN_MOTION_DOT": 0.00030968, "MEAN_MOTION_DDOT": 0}, "tle": {"line1": "1 66634U 25271T   25340.58335648  .00030968  00000+0  21508-3 0  9992", "line2": "2 66634  53.1571 217.2151 0001005 108.0094 269.0335 15.74175793  3185"}}, "geometry": {"type": "Point", "coordinates": [12.200537118998765, 28.140017565735068]}}, {"type": "Feature", "properties": {"norad_id": 66635, "name": "STARLINK-35955", "group": "last-30-days", "lat": 26.72312034077398, "lon": 13.661030661689978, "alt_km": 343.25439780471334, "timestamp": "2025-12-06T20:37:54.814414+00:00", "meta": {"OBJECT_NAME": "STARLINK-35955", "OBJECT_ID": "2025-271U", "EPOCH": "2025-12-06T14:00:01.999872", "MEAN_MOTION": 15.74163104, "ECCENTRICITY": 0.00011386, "INCLINATION": 53.1574, "RA_OF_ASC_NODE": 217.211, "ARG_OF_PERICENTER": 105.3114, "MEAN_ANOMALY": 273.6608, "EPHEMERIS_TYPE": 0, "CLASSIFICATION_TYPE": "U", "NORAD_CAT_ID": 66635, "ELEMENT_SET_NO": 999, "REV_AT_EPOCH": 325, "BSTAR": 0.00027463434, "MEAN_MOTION_DOT": 0.00039736, "MEAN_MOTION_DDOT": 0}, "tle": {"line1": "1 66635U 25271U   25340.58335648  .00039736  00000+0  27463-3 0  9991", "line2": "2 66635  53.1574 217.2110 0001138 105.3114 273.6608 15.74163104  3259"}}, "geometry": {"type": "Point", "coordinates": [13.661030661689978, 26.72312034077398]}}]}